[{"OBJECT_NAME":"YAOGAN-25 01B","OBJECT_ID":"2014-080B","EPOCH":"2026-03-09T23:17:16.355616","MEAN_MOTION":13.4542541,"ECCENTRICITY":0.03582156,"INCLINATION":63.3885,"RA_OF_ASC_NODE":206.5248,"ARG_OF_PERICENTER":8.4777,"MEAN_ANOMALY":352.2085,"EPHEMERIS_TYPE":0,"CLASSIFICATION_TYPE":"U","NORAD_CAT_ID":40339,"ELEMENT_SET_NO":999,"REV_AT_EPOCH":55228,"BSTAR":5.3898333e-5,"MEAN_MOTION_DOT":-4.4e-7,"MEAN_MOTION_DDOT":0},{"OBJECT_NAME":"UNKNOWN","OBJECT_ID":"","EPOCH":"2026-03-06T06:30:45.705312","MEAN_MOTION":13.0026476,"ECCENTRICITY":0.00333528,"INCLINATION":90.2474,"RA_OF_ASC_NODE":4.5417,"ARG_OF_PERICENTER":141.7377,"MEAN_ANOMALY":218.6121,"EPHEMERIS_TYPE":0,"CLASSIFICATION_TYPE":"U","NORAD_CAT_ID":270253,"ELEMENT_SET_NO":999,"REV_AT_EPOCH":28607,"BSTAR":0.0031198967,"MEAN_MOTION_DOT":9.52e-6,"MEAN_MOTION_DDOT":0}]
